{
  "type": "FeatureCollection",
  "features": [
    {
      "type": "Feature",
      "properties": {
        "norad_id": 67110,
        "name": "STARLINK-35781",
        "group": "last-30-days",
        "lat": -2.3897663360394175,
        "lon": -131.6334404292667,
        "alt_km": 335.81078847642584,
        "timestamp": "2025-12-26T17:24:53.444188+00:00",
        "meta_object_name": "STARLINK-35781",
        "meta_object_id": "2025-299J",
        "meta_epoch": "2025-12-26T06:00:02.999808",
        "meta_mean_motion": 15.7998485,
        "meta_eccentricity": 0.00014478,
        "meta_inclination": 42.9973,
        "meta_ra_of_asc_node": 233.8369,
        "meta_arg_of_pericenter": 267.5943,
        "meta_mean_anomaly": 262.1695,
        "meta_ephemeris_type": 0,
        "meta_classification_type": "U",
        "meta_norad_cat_id": 67110,
        "meta_element_set_no": 999,
        "meta_rev_at_epoch": 293,
        "meta_bstar": -0.01071162,
        "meta_mean_motion_dot": -0.01804131,
        "meta_mean_motion_ddot": 0,
        "tle_line1": "1 67110U 25299J   25360.25003472 -.01804131  00000+0 -10712-1 0  9992",
        "tle_line2": "2 67110  42.9973 233.8369 0001447 267.5943 262.1695 15.79984850  2938"
      },
      "geometry": {
        "type": "Point",
        "coordinates": [
          -131.6334404292667,
          -2.3897663360394175
        ]
      }
    },
    {
      "type": "Feature",
      "properties": {
        "norad_id": 67111,
        "name": "STARLINK-35875",
        "group": "last-30-days",
        "lat": -3.5901570182557094,
        "lon": -132.9224384663679,
        "alt_km": 335.9316306892215,
        "timestamp": "2025-12-26T17:24:53.444200+00:00",
        "meta_object_name": "STARLINK-35875",
        "meta_object_id": "2025-299K",
        "meta_epoch": "2025-12-26T06:00:02.999808",
        "meta_mean_motion": 15.79983854,
        "meta_eccentricity": 0.00015958,
        "meta_inclination": 42.9975,
        "meta_ra_of_asc_node": 233.8418,
        "meta_arg_of_pericenter": 267.5641,
        "meta_mean_anomaly": 260.441,
        "meta_ephemeris_type": 0,
        "meta_classification_type": "U",
        "meta_norad_cat_id": 67111,
        "meta_element_set_no": 999,
        "meta_rev_at_epoch": 287,
        "meta_bstar": -0.010745645,
        "meta_mean_motion_dot": -0.0180921,
        "meta_mean_motion_ddot": 0,
        "tle_line1": "1 67111U 25299K   25360.25003472 -.01809210  00000+0 -10746-1 0  9993",
        "tle_line2": "2 67111  42.9975 233.8418 0001595 267.5641 260.4410 15.79983854  2877"
      },
      "geometry": {
        "type": "Point",
        "coordinates": [
          -132.9224384663679,
          -3.5901570182557094
        ]
      }
    },
    {
      "type": "Feature",
      "properties": {
        "norad_id": 67112,
        "name": "STARLINK-35906",
        "group": "last-30-days",
        "lat": -1.329671564495911,
        "lon": -130.4974068815662,
        "alt_km": 335.69756113238964,
        "timestamp": "2025-12-26T17:24:53.444210+00:00",
        "meta_object_name": "STARLINK-35906",
        "meta_object_id": "2025-299L",
        "meta_epoch": "2025-12-26T06:00:02.999808",
        "meta_mean_motion": 15.80000019,
        "meta_eccentricity": 0.00013796,
        "meta_inclination": 42.9973,
        "meta_ra_of_asc_node": 233.8333,
        "meta_arg_of_pericenter": 266.4952,
        "meta_mean_anomaly": 264.8001,
        "meta_ephemeris_type": 0,
        "meta_classification_type": "U",
        "meta_norad_cat_id": 67112,
        "meta_element_set_no": 999,
        "meta_rev_at_epoch": 287,
        "meta_bstar": -0.010709973,
        "meta_mean_motion_dot": -0.01804942,
        "meta_mean_motion_ddot": 0,
        "tle_line1": "1 67112U 25299L   25360.25003472 -.01804942  00000+0 -10710-1 0  9992",
        "tle_line2": "2 67112  42.9973 233.8333 0001379 266.4952 264.8001 15.80000019  2874"
      },
      "geometry": {
        "type": "Point",
        "coordinates": [
          -130.4974068815662,
          -1.329671564495911
        ]
      }
    },
    {
      "type": "Feature",
      "properties": {
        "norad_id": 67113,
        "name": "STARLINK-35789",
        "group": "last-30-days",
        "lat": -0.2147906469625978,
        "lon": -129.30480979458727,
        "alt_km": 335.5119257275237,
        "timestamp": "2025-12-26T17:24:53.444220+00:00",
        "meta_object_name": "STARLINK-35789",
        "meta_object_id": "2025-299M",
        "meta_epoch": "2025-12-26T06:00:02.999808",
        "meta_mean_motion": 15.80011747,
        "meta_eccentricity": 0.0001551,
        "meta_inclination": 42.9971,
        "meta_ra_of_asc_node": 233.829,
        "meta_arg_of_pericenter": 268.1102,
        "meta_mean_anomaly": 264.7997,
        "meta_ephemeris_type": 0,
        "meta_classification_type": "U",
        "meta_norad_cat_id": 67113,
        "meta_element_set_no": 999,
        "meta_rev_at_epoch": 287,
        "meta_bstar": -0.010712628,
        "meta_mean_motion_dot": -0.01806345,
        "meta_mean_motion_ddot": 0,
        "tle_line1": "1 67113U 25299M   25360.25003472 -.01806345  00000+0 -10713-1 0  9995",
        "tle_line2": "2 67113  42.9971 233.8290 0001551 268.1102 264.7997 15.80011747  2876"
      },
      "geometry": {
        "type": "Point",
        "coordinates": [
          -129.30480979458727,
          -0.2147906469625978
        ]
      }
    },
    {
      "type": "Feature",
      "properties": {
        "norad_id": 67114,
        "name": "STARLINK-36180",
        "group": "last-30-days",
        "lat": 1.038433225697665,
        "lon": -127.96389171528898,
        "alt_km": 335.4672496603216,
        "timestamp": "2025-12-26T17:24:53.444230+00:00",
        "meta_object_name": "STARLINK-36180",
        "meta_object_id": "2025-299N",
        "meta_epoch": "2025-12-26T06:00:02.999808",
        "meta_mean_motion": 15.80015993,
        "meta_eccentricity": 0.00013388,
        "meta_inclination": 42.9974,
        "meta_ra_of_asc_node": 233.8247,
        "meta_arg_of_pericenter": 264.3166,
        "meta_mean_anomaly": 270.4269,
        "meta_ephemeris_type": 0,
        "meta_classification_type": "U",
        "meta_norad_cat_id": 67114,
        "meta_element_set_no": 999,
        "meta_rev_at_epoch": 298,
        "meta_bstar": -0.010711181,
        "meta_mean_motion_dot": -0.01806258,
        "meta_mean_motion_ddot": 0,
        "tle_line1": "1 67114U 25299N   25360.25003472 -.01806258  00000+0 -10711-1 0  9997",
        "tle_line2": "2 67114  42.9974 233.8247 0001338 264.3166 270.4269 15.80015993  2988"
      },
      "geometry": {
        "type": "Point",
        "coordinates": [
          -127.96389171528898,
          1.038433225697665
        ]
      }
    },
    {
      "type": "Feature",
      "properties": {
        "norad_id": 67115,
        "name": "STARLINK-35892",
        "group": "last-30-days",
        "lat": 2.165118433036102,
        "lon": -126.75736699218784,
        "alt_km": 335.3309242159412,
        "timestamp": "2025-12-26T17:24:53.444245+00:00",
        "meta_object_name": "STARLINK-35892",
        "meta_object_id": "2025-299P",
        "meta_epoch": "2025-12-26T06:00:02.999808",
        "meta_mean_motion": 15.80029242,
        "meta_eccentricity": 0.00013855,
        "meta_inclination": 42.9974,
        "meta_ra_of_asc_node": 233.8205,
        "meta_arg_of_pericenter": 264.1543,
        "meta_mean_anomaly": 272.2234,
        "meta_ephemeris_type": 0,
        "meta_classification_type": "U",
        "meta_norad_cat_id": 67115,
        "meta_element_set_no": 999,
        "meta_rev_at_epoch": 287,
        "meta_bstar": -0.010733193,
        "meta_mean_motion_dot": -0.01810526,
        "meta_mean_motion_ddot": 0,
        "tle_line1": "1 67115U 25299P   25360.25003472 -.01810526  00000+0 -10733-1 0  9995",
        "tle_line2": "2 67115  42.9974 233.8205 0001385 264.1543 272.2234 15.80029242  2874"
      },
      "geometry": {
        "type": "Point",
        "coordinates": [
          -126.75736699218784,
          2.165118433036102
        ]
      }
    },
    {
      "type": "Feature",
      "properties": {
        "norad_id": 67116,
        "name": "STARLINK-35738",
        "group": "last-30-days",
        "lat": 3.4471468688894644,
        "lon": -125.38081490150428,
        "alt_km": 334.91108851283116,
        "timestamp": "2025-12-26T17:24:53.444255+00:00",
        "meta_object_name": "STARLINK-35738",
        "meta_object_id": "2025-299Q",
        "meta_epoch": "2025-12-26T06:00:02.999808",
        "meta_mean_motion": 15.80029824,
        "meta_eccentricity": 0.00014534,
        "meta_inclination": 42.9973,
        "meta_ra_of_asc_node": 233.8158,
        "meta_arg_of_pericenter": 275.1305,
        "meta_mean_anomaly": 263.1266,
        "meta_ephemeris_type": 0,
        "meta_classification_type": "U",
        "meta_norad_cat_id": 67116,
        "meta_element_set_no": 999,
        "meta_rev_at_epoch": 287,
        "meta_bstar": -0.010721502,
        "meta_mean_motion_dot": -0.018089,
        "meta_mean_motion_ddot": 0,
        "tle_line1": "1 67116U 25299Q   25360.25003472 -.01808900  00000+0 -10722-1 0  9997",
        "tle_line2": "2 67116  42.9973 233.8158 0001453 275.1305 263.1266 15.80029824  2875"
      },
      "geometry": {
        "type": "Point",
        "coordinates": [
          -125.38081490150428,
          3.4471468688894644
        ]
      }
    }
  ]
}